NORAD_CAT_ID,OBJECT_NAME,OBJECT_TYPE,EPOCH,MEAN_MOTION,ECCENTRICITY,INCLINATION,RA_OF_ASC_NODE,ARG_OF_PERICENTER,MEAN_ANOMALY,BSTAR,MEAN_MOTION_DOT,MEAN_MOTION_DDOT,TLE_LINE0,TLE_LINE1,TLE_LINE2,SEMIMAJOR_AXIS,PERIOD,APOGEE,PERIGEE,DECAYED
52135.0,STARLINK-3729,PAYLOAD,2022-04-16 22:00:01,15.7305626,0.000127,53.2171,1.9121,111.7161,231.2626,0.00088327,0.00124423,0.0,0 STARLINK-3729,1 52135U 22029AZ  22106.91668981  .00124423  00000-0  88327-3 0  9997,2 52135  53.2171   1.9121 0001270 111.7161 231.2626 15.73056260  3694,6728.305,91.542,351.025,349.316,0.0
52135.0,STARLINK-3729,PAYLOAD,2022-04-17 12:00:00,15.73132238,0.0001149,53.2171,359.0248,120.6903,287.7074,0.0011252,0.00159869,0.0,0 STARLINK-3729,1 52135U 22029AZ  22107.50001157  .00159869  00000-0  11252-2 0  9993,2 52135  53.2171 359.0248 0001149 120.6903 287.7074 15.73132238  5863,6728.0880000000025,91.537,350.726,349.18,0.0
52135.0,STARLINK-3729,PAYLOAD,2022-04-17 14:00:01,15.73133432,0.0001161,53.2167,358.6121,120.4506,40.172,0.0014843,0.00212438,0.0,0 STARLINK-3729,1 52135U 22029AZ  22107.58334491  .00212438  00000-0  14843-2 0  9992,2 52135  53.2167 358.6121 0001161 120.4506  40.1720 15.73133432  3701,6728.085,91.537,350.731,349.1690000000001,0.0
52135.0,STARLINK-3729,PAYLOAD,2022-04-17 22:00:00,15.73310713,0.0001164,53.2166,356.9643,112.1942,137.3702,-0.00049989,-0.00070521,0.0,0 STARLINK-3729,1 52135U 22029AZ  22107.91667824 -.00070521  00000-0 -49989-3 0  9995,2 52135  53.2166 356.9643 0001164 112.1942 137.3702 15.73310713  3703,6727.58,91.527,350.228,348.661,0.0
52135.0,STARLINK-3729,PAYLOAD,2022-04-18 04:00:00,15.73272251,0.0001023,53.216,355.7277,109.3536,116.992,-2.5485e-05,-4.206e-05,0.0,0 STARLINK-3729,1 52135U 22029AZ  22108.16667824 -.00004206  00000-0 -25485-4 0  9996,2 52135  53.2160 355.7277 0001023 109.3536 116.9920 15.73272251  5978,6727.689,91.529,350.242,348.866,0.0
52135.0,STARLINK-3729,PAYLOAD,2022-04-18 14:00:01,15.73222151,0.0001149,53.2159,353.6631,127.3238,300.2892,6.4578e-05,8.461e-05,0.0,0 STARLINK-3729,1 52135U 22029AZ  22108.58334491  .00008461  00000-0  64578-4 0  9994,2 52135  53.2159 353.6631 0001149 127.3238 300.2892 15.73222151  6033,6727.831999999999,91.532,350.47,348.9240000000001,0.0
52135.0,STARLINK-3729,PAYLOAD,2022-04-18 22:00:00,15.73257707,0.0001099,53.2161,352.0148,114.5682,41.9996,-0.00060596,-0.00085015,0.0,0 STARLINK-3729,1 52135U 22029AZ  22108.91667824 -.00085015  00000-0 -60596-3 0  9997,2 52135  53.2161 352.0148 0001099 114.5682  41.9996 15.73257707  3695,6727.731,91.53,350.335,348.856,0.0
52135.0,STARLINK-3729,PAYLOAD,2022-04-19 04:00:00,15.73201166,0.0001126,53.216,350.7787,107.8577,25.4318,-0.00017751,-0.00025457,0.0,0 STARLINK-3729,1 52135U 22029AZ  22109.16667824 -.00025457  00000-0 -17751-3 0  9994,2 52135  53.2160 350.7787 0001126 107.8577  25.4318 15.73201166  6121,6727.892,91.533,350.514,348.999,0.0
52135.0,STARLINK-3729,PAYLOAD,2022-04-19 14:00:01,15.73157105,0.0001315,53.216,348.7143,118.2577,216.173,0.00062846,0.00088349,0.0,0 STARLINK-3729,1 52135U 22029AZ  22109.58334491  .00088349  00000-0  62846-3 0  9993,2 52135  53.2160 348.7143 0001315 118.2577 216.1730 15.73157105  3701,6728.017,91.536,350.767,348.99800000000016,0.0
52135.0,STARLINK-3729,PAYLOAD,2022-04-19 20:00:01,15.73252302,0.0001192,53.2159,347.4786,116.9745,194.1338,-0.00069702,-0.00097532,0.0,0 STARLINK-3729,1 52135U 22029AZ  22109.83334491 -.00097532  00000-0 -69702-3 0  9995,2 52135  53.2159 347.4786 0001192 116.9745 194.1338 15.73252302  6238,6727.746,91.53,350.413,348.809,0.0
52135.0,STARLINK-3729,PAYLOAD,2022-04-20 04:00:00,15.7319212,9.86e-05,53.2151,345.8298,108.7427,291.309,0.00015244,0.0002082,0.0,0 STARLINK-3729,1 52135U 22029AZ  22110.16667824  .00020820  00000-0  15244-3 0  9998,2 52135  53.2151 345.8298 0000986 108.7427 291.3090 15.73192120  6287,6727.918000000002,91.534,350.446,349.119,0.0
52135.0,STARLINK-3729,PAYLOAD,2022-04-20 12:00:00,15.73148469,0.0001176,53.2152,344.1782,125.2085,3.7818,0.0005045,0.00070623,0.0,0 STARLINK-3729,1 52135U 22029AZ  22110.50001157  .00070623  00000-0  50450-3 0  9991,2 52135  53.2152 344.1782 0001176 125.2085   3.7818 15.73148469  6330,6728.042,91.536,350.6980000000001,349.116,0.0
52135.0,STARLINK-3729,PAYLOAD,2022-04-20 14:00:01,15.73145827,0.0001257,53.2153,343.7655,123.9278,117.2868,0.00069014,0.00097137,0.0,0 STARLINK-3729,1 52135U 22029AZ  22110.58334491  .00097137  00000-0  69014-3 0  9994,2 52135  53.2153 343.7655 0001257 123.9278 117.2868 15.73145827  3703,6728.05,91.536,350.76,349.069,0.0
52135.0,STARLINK-3729,PAYLOAD,2022-04-20 22:00:00,15.7322845,0.0001200999999999,53.2155,342.11800000000005,113.2608,216.858,-4.7624e-05,-7.306e-05,0.0,0 STARLINK-3729,1 52135U 22029AZ  22110.91667824 -.00007306  00000-0 -47624-4 0  9995,2 52135  53.2155 342.1180 0001201 113.2608 216.8580 15.73228450  3698,6727.814,91.532,350.487,348.871,0.0
52135.0,STARLINK-3729,PAYLOAD,2022-04-21 04:00:00,15.73278377,0.000103,53.216,340.8785,105.8448,200.9785,-0.0010919,-0.00151633,0.0,0 STARLINK-3729,1 52135U 22029AZ  22111.16667824 -.00151633  00000-0 -10919-2 0  9991,2 52135  53.2160 340.8785 0001030 105.8448 200.9785 15.73278377  6449,6727.672,91.529,350.23,348.844,0.0
52135.0,STARLINK-3729,PAYLOAD,2022-04-21 14:00:01,15.73223101,0.000126,53.2157,338.8168,121.8871,26.1314,-0.00018454,-0.00026463,0.0,0 STARLINK-3729,1 52135U 22029AZ  22111.58334491 -.00026463  00000-0 -18454-3 0  9993,2 52135  53.2157 338.8168 0001260 121.8871  26.1314 15.73223101  3707,6727.829000000002,91.532,350.542,348.847,0.0
52135.0,STARLINK-3729,PAYLOAD,2022-04-21 22:00:00,15.73243396,0.0001101,53.2155,337.1693,111.873,125.1213,-0.00029813,-0.00042327,0.0,0 STARLINK-3729,1 52135U 22029AZ  22111.91667824 -.00042327  00000-0 -29813-3 0  9997,2 52135  53.2155 337.1693 0001101 111.8730 125.1213 15.73243396  3714,6727.771,91.531,350.37699999999984,348.896,0.0
52135.0,STARLINK-3729,PAYLOAD,2022-04-22 14:00:01,15.73256221,0.0001327,53.2153,333.86800000000005,121.8963,293.0101,-0.00038689,-0.00054696,0.0,0 STARLINK-3729,1 52135U 22029AZ  22112.58334491 -.00054696  00000-0 -38689-3 0  9995,2 52135  53.2153 333.8680 0001327 121.8963 293.0101 15.73256221  3701,6727.735,91.53,350.49300000000005,348.707,0.0
52135.0,STARLINK-3729,PAYLOAD,2022-04-22 20:00:01,15.73246557,0.0001215,53.2154,332.6324,115.3899,276.2495,-0.0010103999999999,-0.00140359,0.0,0 STARLINK-3729,1 52135U 22029AZ  22112.83334491 -.00140359  00000-0 -10104-2 0  9996,2 52135  53.2154 332.6324 0001215 115.3899 276.2495 15.73246557  6709,6727.762,91.53,350.445,348.81,0.0
52135.0,STARLINK-3729,PAYLOAD,2022-04-23 04:00:00,15.73144449,0.0001104,53.2153,330.9831,110.6899,9.8833,0.00015667,0.00021372,0.0,0 STARLINK-3729,1 52135U 22029AZ  22113.16667824  .00021372  00000-0  15667-3 0  9993,2 52135  53.2153 330.9831 0001104 110.6899   9.8833 15.73144449  6755,6728.054,91.536,350.661,349.176,0.0
52135.0,STARLINK-3729,PAYLOAD,2022-04-23 14:00:01,15.73158698,0.0001245,53.2157,328.9196,120.4955,201.1499,0.00049108,0.00068743,0.0,0 STARLINK-3729,1 52135U 22029AZ  22113.58334491  .00068743  00000-0  49108-3 0  9990,2 52135  53.2157 328.9196 0001245 120.4955 201.1499 15.73158698  3694,6728.013000000001,91.536,350.716,349.04,0.0
52135.0,STARLINK-3729,PAYLOAD,2022-04-24 04:00:00,15.73197925,8.14e-05,53.2146,326.0347,115.7162,271.568,0.00036104,0.00050349,0.0,0 STARLINK-3729,1 52135U 22029AZ  22114.16667824  .00050349  00000-0  36104-3 0  9999,2 52135  53.2146 326.0347 0000814 115.7162 271.5680 15.73197925  6914,6727.901,91.533,350.314,349.218,0.0
52135.0,STARLINK-3729,PAYLOAD,2022-04-24 14:00:01,15.7325784,0.0001093,53.215,323.9711,126.4205,102.068,-0.00016063,-0.00023157,0.0,0 STARLINK-3729,1 52135U 22029AZ  22114.58334491 -.00023157  00000-0 -16063-3 0  9997,2 52135  53.2150 323.9711 0001093 126.4205 102.0680 15.73257840  3702,6727.73,91.53,350.331,348.86,0.0
52135.0,STARLINK-3729,PAYLOAD,2022-04-24 20:00:01,15.73243991,0.0001102,53.215,322.7358,113.5755,91.6308,-0.0005765,-0.00080904,0.0,0 STARLINK-3729,1 52135U 22029AZ  22114.83334491 -.00080904  00000-0 -57650-3 0  9995,2 52135  53.2150 322.7358 0001102 113.5755  91.6308 15.73243991  7025,6727.77,91.531,350.376,348.89300000000014,0.0
52135.0,STARLINK-3729,PAYLOAD,2022-04-25 12:00:00,15.73156175,0.0001017,53.2151,319.4349,120.9144,262.1114,0.00031338,0.00043506,0.0,0 STARLINK-3729,1 52135U 22029AZ  22115.50001157  .00043506  00000-0  31338-3 0  9990,2 52135  53.2151 319.4349 0001017 120.9144 262.1114 15.73156175  7126,6728.02,91.536,350.569,349.201,0.0
52135.0,STARLINK-3729,PAYLOAD,2022-04-25 14:00:01,15.73196544,0.0001103,53.2152,319.0229,119.9218,15.3141,-0.00022167,-0.00031607,0.0,0 STARLINK-3729,1 52135U 22029AZ  22115.58334491 -.00031607  00000-0 -22167-3 0  9999,2 52135  53.2152 319.0229 0001103 119.9218  15.3141 15.73196544  3719,6727.905,91.533,350.51199999999994,349.028,0.0
52135.0,STARLINK-3729,PAYLOAD,2022-04-25 22:00:00,15.73139043,0.0001068,53.2149,317.3755,101.9159,122.2547,0.00055735,0.00078125,0.0,0 STARLINK-3729,1 52135U 22029AZ  22115.91667824  .00078125  00000-0  55735-3 0  9996,2 52135  53.2149 317.3755 0001068 101.9159 122.2547 15.73139043  3703,6728.069,91.537,350.653,349.215,0.0
52135.0,STARLINK-3729,PAYLOAD,2022-04-26 04:00:00,15.73230431,0.0001063,53.214,316.1376,106.8308,94.003,-0.00030862,-0.00043763,0.0,0 STARLINK-3729,1 52135U 22029AZ  22116.16667824 -.00043763  00000-0 -30862-3 0  9990,2 52135  53.2140 316.1376 0001063 106.8308  94.0030 15.73230431  7233,6727.808000000001,91.531,350.389,348.958,0.0
52135.0,STARLINK-3729,PAYLOAD,2022-04-26 14:00:01,15.7318811,0.0001221,53.2144,314.0743,115.6075,286.4697,0.00041968,0.00058661,0.0,0 STARLINK-3729,1 52135U 22029AZ  22116.58335648  .00058661  00000-0  41968-3 0  9992,2 52135  53.2144 314.0743 0001221 115.6075 286.4697 15.73188110  3695,6727.929,91.534,350.616,348.973,0.0
